[
    {
        "Altitude(m)": 702690.4805171501,
        "Argument of Periapsis(deg)": 0.0011390121186627068,
        "Eccentricity": 0.0,
        "Inclination(deg)": 45.0,
        "Latitude(deg)": 10.69382394567717,
        "Longitude(deg)": 144.12445673623753,
        "Mean Anomaly(deg)": 164.78972166474807,
        "RAAN(deg)": 74.99892480585419,
        "Satellite Name": "Constellation 1 340",
        "Satellite Number": 340,
        "Semi-Major Axis(m)": 7083131.272910544,
        "Time(s)": 19
    },
    {
        "Altitude(m)": 702690.9992560156,
        "Argument of Periapsis(deg)": 0.0011989601249081123,
        "Eccentricity": 0.0,
        "Inclination(deg)": 45.0,
        "Latitude(deg)": 10.651375799871728,
        "Longitude(deg)": 144.16473030039793,
        "Mean Anomaly(deg)": 164.85042280499803,
        "RAAN(deg)": 74.9988682166886,
        "Satellite Name": "Constellation 1 340",
        "Satellite Number": 340,
        "Semi-Major Axis(m)": 7083131.272910544,
        "Time(s)": 20
    },
    {
        "Altitude(m)": 702691.5373907798,
        "Argument of Periapsis(deg)": 0.001258908131153518,
        "Eccentricity": 0.0,
        "Inclination(deg)": 45.0,
        "Latitude(deg)": 10.60892129789736,
        "Longitude(deg)": 144.20499154339078,
        "Mean Anomaly(deg)": 164.91112394524788,
        "RAAN(deg)": 74.99881162752304,
        "Satellite Name": "Constellation 1 340",
        "Satellite Number": 340,
        "Semi-Major Axis(m)": 7083131.272910544,
        "Time(s)": 21
    },
    {
        "Altitude(m)": 702692.0949373781,
        "Argument of Periapsis(deg)": 0.0013188561373989236,
        "Eccentricity": 0.0,
        "Inclination(deg)": 45.0,
        "Latitude(deg)": 10.566460467607845,
        "Longitude(deg)": 144.24524034868378,
        "Mean Anomaly(deg)": 164.97182508549778,
        "RAAN(deg)": 74.99875503835747,
        "Satellite Name": "Constellation 1 340",
        "Satellite Number": 340,
        "Semi-Major Axis(m)": 7083131.272910544,
        "Time(s)": 22
    },
    {
        "Altitude(m)": 702692.6719116756,
        "Argument of Periapsis(deg)": 0.0013788041436443293,
        "Eccentricity": 0.0,
        "Inclination(deg)": 45.0,
        "Latitude(deg)": 10.523993336832572,
        "Longitude(deg)": 144.28547710401105,
        "Mean Anomaly(deg)": 165.0325262257477,
        "RAAN(deg)": 74.9986984491919,
        "Satellite Name": "Constellation 1 340",
        "Satellite Number": 340,
        "Semi-Major Axis(m)": 7083131.272910544,
        "Time(s)": 23
    },
    {
        "Altitude(m)": 702693.268329451,
        "Argument of Periapsis(deg)": 0.001438752149889735,
        "Eccentricity": 0.0,
        "Inclination(deg)": 45.0,
        "Latitude(deg)": 10.481519933378042,
        "Longitude(deg)": 144.32570169279091,
        "Mean Anomaly(deg)": 165.09322736599765,
        "RAAN(deg)": 74.99864186002634,
        "Satellite Name": "Constellation 1 340",
        "Satellite Number": 340,
        "Semi-Major Axis(m)": 7083131.272910544,
        "Time(s)": 24
    },
    {
        "Altitude(m)": 702693.8842063964,
        "Argument of Periapsis(deg)": 0.0014987001561351404,
        "Eccentricity": 0.0,
        "Inclination(deg)": 45.0,
        "Latitude(deg)": 10.439040285027192,
        "Longitude(deg)": 144.36591416651405,
        "Mean Anomaly(deg)": 165.1539285062475,
        "RAAN(deg)": 74.99858527086077,
        "Satellite Name": "Constellation 1 340",
        "Satellite Number": 340,
        "Semi-Major Axis(m)": 7083131.272910544,
        "Time(s)": 25
    },
    {
        "Altitude(m)": 702694.5195581259,
        "Argument of Periapsis(deg)": 0.001558648162380546,
        "Eccentricity": 0.0,
        "Inclination(deg)": 45.0,
        "Latitude(deg)": 10.396554419539296,
        "Longitude(deg)": 144.40611457664696,
        "Mean Anomaly(deg)": 165.21462964649737,
        "RAAN(deg)": 74.99852868169519,
        "Satellite Name": "Constellation 1 340",
        "Satellite Number": 340,
        "Semi-Major Axis(m)": 7083131.272910544,
        "Time(s)": 26
    },
    {
        "Altitude(m)": 702695.1744001635,
        "Argument of Periapsis(deg)": 0.0016185961686259519,
        "Eccentricity": 0.0,
        "Inclination(deg)": 45.0,
        "Latitude(deg)": 10.35406236465052,
        "Longitude(deg)": 144.44630297463155,
        "Mean Anomaly(deg)": 165.27533078674725,
        "RAAN(deg)": 74.99847209252962,
        "Satellite Name": "Constellation 1 340",
        "Satellite Number": 340,
        "Semi-Major Axis(m)": 7083131.272910544,
        "Time(s)": 27
    },
    {
        "Altitude(m)": 702695.8487479601,
        "Argument of Periapsis(deg)": 0.0016785441748713573,
        "Eccentricity": 0.0,
        "Inclination(deg)": 45.0,
        "Latitude(deg)": 10.311564148073739,
        "Longitude(deg)": 144.48647941188548,
        "Mean Anomaly(deg)": 165.33603192699724,
        "RAAN(deg)": 74.99841550336406,
        "Satellite Name": "Constellation 1 340",
        "Satellite Number": 340,
        "Semi-Major Axis(m)": 7083131.272910544,
        "Time(s)": 28
    },
    {
        "Altitude(m)": 702696.5426168703,
        "Argument of Periapsis(deg)": 0.001738492181116763,
        "Eccentricity": 0.0,
        "Inclination(deg)": 45.0,
        "Latitude(deg)": 10.269059797498889,
        "Longitude(deg)": 144.52664393980206,
        "Mean Anomaly(deg)": 165.39673306724708,
        "RAAN(deg)": 74.99835891419848,
        "Satellite Name": "Constellation 1 340",
        "Satellite Number": 340,
        "Semi-Major Axis(m)": 7083131.272910544,
        "Time(s)": 29
    },
    {
        "Altitude(m)": 702697.2560221779,
        "Argument of Periapsis(deg)": 0.0017984401873621684,
        "Eccentricity": 0.0,
        "Inclination(deg)": 45.0,
        "Latitude(deg)": 10.226549340593076,
        "Longitude(deg)": 144.5667964416534,
        "Mean Anomaly(deg)": 165.45743420749696,
        "RAAN(deg)": 74.99830232503291,
        "Satellite Name": "Constellation 1 340",
        "Satellite Number": 340,
        "Semi-Major Axis(m)": 7083131.272910544,
        "Time(s)": 30
    },
    {
        "Altitude(m)": 702697.988979079,
        "Argument of Periapsis(deg)": 0.0018583881936075745,
        "Eccentricity": 0.0,
        "Inclination(deg)": 45.0,
        "Latitude(deg)": 10.184032804999754,
        "Longitude(deg)": 144.6069373049788,
        "Mean Anomaly(deg)": 165.5181353477469,
        "RAAN(deg)": 74.99824573586736,
        "Satellite Name": "Constellation 1 340",
        "Satellite Number": 340,
        "Semi-Major Axis(m)": 7083131.272910544,
        "Time(s)": 31
    },
    {
        "Altitude(m)": 702698.741502676,
        "Argument of Periapsis(deg)": 0.0019183361998529795,
        "Eccentricity": 0.0,
        "Inclination(deg)": 45.0,
        "Latitude(deg)": 10.14151021834051,
        "Longitude(deg)": 144.64706641300228,
        "Mean Anomaly(deg)": 165.5788364879968,
        "RAAN(deg)": 74.99818914670178,
        "Satellite Name": "Constellation 1 340",
        "Satellite Number": 340,
        "Semi-Major Axis(m)": 7083131.272910544,
        "Time(s)": 32
    },
    {
        "Altitude(m)": 702699.5136080077,
        "Argument of Periapsis(deg)": 0.0019782842060983856,
        "Eccentricity": 0.0,
        "Inclination(deg)": 45.0,
        "Latitude(deg)": 10.098981608213757,
        "Longitude(deg)": 144.68718381702104,
        "Mean Anomaly(deg)": 165.6395376282467,
        "RAAN(deg)": 74.99813255753621,
        "Satellite Name": "Constellation 1 340",
        "Satellite Number": 340,
        "Semi-Major Axis(m)": 7083131.272910544,
        "Time(s)": 33
    },
    {
        "Altitude(m)": 702700.3053100128,
        "Argument of Periapsis(deg)": 0.0020382322123437906,
        "Eccentricity": 0.0,
        "Inclination(deg)": 45.0,
        "Latitude(deg)": 10.056447002195569,
        "Longitude(deg)": 144.72728956830832,
        "Mean Anomaly(deg)": 165.70023876849655,
        "RAAN(deg)": 74.99807596837063,
        "Satellite Name": "Constellation 1 340",
        "Satellite Number": 340,
        "Semi-Major Axis(m)": 7083131.272910544,
        "Time(s)": 34
    },
    {
        "Altitude(m)": 702701.1166235494,
        "Argument of Periapsis(deg)": 0.002098180218589197,
        "Eccentricity": 0.0,
        "Inclination(deg)": 45.0,
        "Latitude(deg)": 10.013906427839366,
        "Longitude(deg)": 144.76738371811373,
        "Mean Anomaly(deg)": 165.76093990874648,
        "RAAN(deg)": 74.99801937920508,
        "Satellite Name": "Constellation 1 340",
        "Satellite Number": 340,
        "Semi-Major Axis(m)": 7083131.272910544,
        "Time(s)": 35
    },
    {
        "Altitude(m)": 702701.9475633947,
        "Argument of Periapsis(deg)": 0.002158128224834602,
        "Eccentricity": 0.0,
        "Inclination(deg)": 45.0,
        "Latitude(deg)": 9.971359912676338,
        "Longitude(deg)": 144.807466317663,
        "Mean Anomaly(deg)": 165.82164104899638,
        "RAAN(deg)": 74.99796279003951,
        "Satellite Name": "Constellation 1 340",
        "Satellite Number": 340,
        "Semi-Major Axis(m)": 7083131.272910544,
        "Time(s)": 36
    },
    {
        "Altitude(m)": 702702.7981442407,
        "Argument of Periapsis(deg)": 0.002218076231080008,
        "Eccentricity": 0.0,
        "Inclination(deg)": 45.0,
        "Latitude(deg)": 9.928807484215543,
        "Longitude(deg)": 144.84753725006138,
        "Mean Anomaly(deg)": 165.8823421892462,
        "RAAN(deg)": 74.99790620087393,
        "Satellite Name": "Constellation 1 340",
        "Satellite Number": 340,
        "Semi-Major Axis(m)": 7083131.272910544,
        "Time(s)": 37
    }
]